{"type": "FeatureCollection", "features": [{"type": "Feature", "properties": {"norad_id": 36828, "name": "BEIDOU-2 IGSO-1 (C06)", "group": "beidou", "lat": -13.487059986676998, "lon": 154.6171348766186, "alt_km": 35918.15100932428, "timestamp": "2025-12-19T20:43:00.350513+00:00", "meta": {"OBJECT_NAME": "BEIDOU-2 IGSO-1 (C06)", "OBJECT_ID": "2010-036A", "EPOCH": "2025-12-14T21:38:21.623424", "MEAN_MOTION": 1.00275796, "ECCENTRICITY": 0.00512569, "INCLINATION": 54.2866, "RA_OF_ASC_NODE": 164.6279, "ARG_OF_PERICENTER": 215.8888, "MEAN_ANOMALY": 135.7931, "EPHEMERIS_TYPE": 0, "CLASSIFICATION_TYPE": "U", "NORAD_CAT_ID": 36828, "ELEMENT_SET_NO": 999, "REV_AT_EPOCH": 5624, "BSTAR": 0, "MEAN_MOTION_DOT": -2.4e-07, "MEAN_MOTION_DDOT": 0}, "tle": {"line1": "1 36828U 10036A   25348.90163916 -.00000024  00000+0  00000+0 0  9999", "line2": "2 36828  54.2866 164.6279 0051256 215.8888 135.7931  1.00275796 56247"}}, "geometry": {"type": "Point", "coordinates": [154.6171348766186, -13.487059986676998]}}, {"type": "Feature", "properties": {"norad_id": 37210, "name": "BEIDOU-2 G4 (C04)", "group": "beidou", "lat": 2.4603512170276858, "lon": -160.52875896614862, "alt_km": 35765.61808783856, "timestamp": "2025-12-19T20:43:00.350536+00:00", "meta": {"OBJECT_NAME": "BEIDOU-2 G4 (C04)", "OBJECT_ID": "2010-057A", "EPOCH": "2025-12-19T05:27:56.588256", "MEAN_MOTION": 1.00272062, "ECCENTRICITY": 0.00104524, "INCLINATION": 3.2001, "RA_OF_ASC_NODE": 69.9152, "ARG_OF_PERICENTER": 192.5633, "MEAN_ANOMALY": 67.6683, "EPHEMERIS_TYPE": 0, "CLASSIFICATION_TYPE": "U", "NORAD_CAT_ID": 37210, "ELEMENT_SET_NO": 999, "REV_AT_EPOCH": 5548, "BSTAR": 0, "MEAN_MOTION_DOT": -8.9e-07, "MEAN_MOTION_DDOT": 0}, "tle": {"line1": "1 37210U 10057A   25353.22773829 -.00000089  00000+0  00000+0 0  9990", "line2": "2 37210   3.2001  69.9152 0010452 192.5633  67.6683  1.00272062 55482"}}, "geometry": {"type": "Point", "coordinates": [-160.52875896614862, 2.4603512170276858]}}, {"type": "Feature", "properties": {"norad_id": 37256, "name": "BEIDOU-2 IGSO-2 (C07)", "group": "beidou", "lat": -36.59353805877879, "lon": 136.14327218279263, "alt_km": 35592.72866977805, "timestamp": "2025-12-19T20:43:00.350551+00:00", "meta": {"OBJECT_NAME": "BEIDOU-2 IGSO-2 (C07)", "OBJECT_ID": "2010-068A", "EPOCH": "2025-12-18T17:13:56.551296", "MEAN_MOTION": 1.00284788, "ECCENTRICITY": 0.00483763, "INCLINATION": 47.875, "RA_OF_ASC_NODE": 274.0752, "ARG_OF_PERICENTER": 216.347, "MEAN_ANOMALY": 323.4971, "EPHEMERIS_TYPE": 0, "CLASSIFICATION_TYPE": "U", "NORAD_CAT_ID": 37256, "ELEMENT_SET_NO": 999, "REV_AT_EPOCH": 5498, "BSTAR": 0, "MEAN_MOTION_DOT": -2e-06, "MEAN_MOTION_DDOT": 0}, "tle": {"line1": "1 37256U 10068A   25352.71801564 -.00000200  00000+0  00000+0 0  9998", "line2": "2 37256  47.8750 274.0752 0048376 216.3470 323.4971  1.00284788 54987"}}, "geometry": {"type": "Point", "coordinates": [136.14327218279263, -36.59353805877879]}}, {"type": "Feature", "properties": {"norad_id": 37384, "name": "BEIDOU-2 IGSO-3 (C08)", "group": "beidou", "lat": 58.879044572881824, "lon": 160.8841076726351, "alt_km": 35763.933874219205, "timestamp": "2025-12-19T20:43:00.350565+00:00", "meta": {"OBJECT_NAME": "BEIDOU-2 IGSO-3 (C08)", "OBJECT_ID": "2011-013A", "EPOCH": "2025-12-18T16:17:49.029216", "MEAN_MOTION": 1.00269421, "ECCENTRICITY": 0.00353461, "INCLINATION": 62.1512, "RA_OF_ASC_NODE": 41.8596, "ARG_OF_PERICENTER": 187.8899, "MEAN_ANOMALY": 209.6604, "EPHEMERIS_TYPE": 0, "CLASSIFICATION_TYPE": "U", "NORAD_CAT_ID": 37384, "ELEMENT_SET_NO": 999, "REV_AT_EPOCH": 5385, "BSTAR": 0, "MEAN_MOTION_DOT": -1.73e-06, "MEAN_MOTION_DDOT": 0}, "tle": {"line1": "1 37384U 11013A   25352.67903969 -.00000173  00000+0  00000+0 0  9997", "line2": "2 37384  62.1512  41.8596 0035346 187.8899 209.6604  1.00269421 53851"}}, "geometry": {"type": "Point", "coordinates": [160.8841076726351, 58.879044572881824]}}, {"type": "Feature", "properties": {"norad_id": 37763, "name": "BEIDOU-2 IGSO-4 (C09)", "group": "beidou", "lat": -25.193257423360368, "lon": 147.68052100764356, "alt_km": 35867.77646247353, "timestamp": "2025-12-19T20:43:00.350577+00:00", "meta": {"OBJECT_NAME": "BEIDOU-2 IGSO-4 (C09)", "OBJECT_ID": "2011-038A", "EPOCH": "2025-12-17T23:29:21.564384", "MEAN_MOTION": 1.00281312, "ECCENTRICITY": 0.01493143, "INCLINATION": 54.5836, "RA_OF_ASC_NODE": 167.2999, "ARG_OF_PERICENTER": 230.2426, "MEAN_ANOMALY": 136.1954, "EPHEMERIS_TYPE": 0, "CLASSIFICATION_TYPE": "U", "NORAD_CAT_ID": 37763, "ELEMENT_SET_NO": 999, "REV_AT_EPOCH": 5283, "BSTAR": 0, "MEAN_MOTION_DOT": 6.5e-07, "MEAN_MOTION_DDOT": 0}, "tle": {"line1": "1 37763U 11038A   25351.97872181  .00000065  00000+0  00000+0 0  9997", "line2": "2 37763  54.5836 167.2999 0149314 230.2426 136.1954  1.00281312 52838"}}, "geometry": {"type": "Point", "coordinates": [147.68052100764356, -25.193257423360368]}}, {"type": "Feature", "properties": {"norad_id": 37948, "name": "BEIDOU-2 IGSO-5 (C10)", "group": "beidou", "lat": -27.90005459064493, "lon": 122.16787222102796, "alt_km": 35323.01329423565, "timestamp": "2025-12-19T20:43:00.350590+00:00", "meta": {"OBJECT_NAME": "BEIDOU-2 IGSO-5 (C10)", "OBJECT_ID": "2011-073A", "EPOCH": "2025-12-18T16:23:51.533376", "MEAN_MOTION": 1.00290152, "ECCENTRICITY": 0.01099443, "INCLINATION": 48.0091, "RA_OF_ASC_NODE": 273.7856, "ARG_OF_PERICENTER": 222.3449, "MEAN_ANOMALY": 290.7013, "EPHEMERIS_TYPE": 0, "CLASSIFICATION_TYPE": "U", "NORAD_CAT_ID": 37948, "ELEMENT_SET_NO": 999, "REV_AT_EPOCH": 5132, "BSTAR": 0, "MEAN_MOTION_DOT": -1.7e-06, "MEAN_MOTION_DDOT": 0}, "tle": {"line1": "1 37948U 11073A   25352.68323534 -.00000170  00000+0  00000+0 0  9991", "line2": "2 37948  48.0091 273.7856 0109944 222.3449 290.7013  1.00290152 51329"}}, "geometry": {"type": "Point", "coordinates": [122.16787222102796, -27.90005459064493]}}, {"type": "Feature", "properties": {"norad_id": 38091, "name": "BEIDOU-2 G5 (C05)", "group": "beidou", "lat": 1.4744592586855385, "lon": 98.25249245046633, "alt_km": 35836.98971422684, "timestamp": "2025-12-19T20:43:00.350602+00:00", "meta": {"OBJECT_NAME": "BEIDOU-2 G5 (C05)", "OBJECT_ID": "2012-008A", "EPOCH": "2025-12-19T03:16:16.701024", "MEAN_MOTION": 1.00268437, "ECCENTRICITY": 0.00129619, "INCLINATION": 3.1246, "RA_OF_ASC_NODE": 70.6885, "ARG_OF_PERICENTER": 231.3225, "MEAN_ANOMALY": 253.8349, "EPHEMERIS_TYPE": 0, "CLASSIFICATION_TYPE": "U", "NORAD_CAT_ID": 38091, "ELEMENT_SET_NO": 999, "REV_AT_EPOCH": 5056, "BSTAR": 0, "MEAN_MOTION_DOT": 7.9e-07, "MEAN_MOTION_DDOT": 0}, "tle": {"line1": "1 38091U 12008A   25353.13630441  .00000079  00000+0  00000+0 0  9996", "line2": "2 38091   3.1246  70.6885 0012961 231.3225 253.8349  1.00268437 50561"}}, "geometry": {"type": "Point", "coordinates": [98.25249245046633, 1.4744592586855385]}}, {"type": "Feature", "properties": {"norad_id": 38250, "name": "BEIDOU-2 M3 (C11)", "group": "beidou", "lat": 10.280397756492015, "lon": -42.05734903292795, "alt_km": 21535.794590493137, "timestamp": "2025-12-19T20:43:00.350628+00:00", "meta": {"OBJECT_NAME": "BEIDOU-2 M3 (C11)", "OBJECT_ID": "2012-018A", "EPOCH": "2025-12-18T05:36:36.842400", "MEAN_MOTION": 1.86230021, "ECCENTRICITY": 0.00242148, "INCLINATION": 55.9152, "RA_OF_ASC_NODE": 310.9725, "ARG_OF_PERICENTER": 274.7921, "MEAN_ANOMALY": 84.917, "EPHEMERIS_TYPE": 0, "CLASSIFICATION_TYPE": "U", "NORAD_CAT_ID": 38250, "ELEMENT_SET_NO": 999, "REV_AT_EPOCH": 9257, "BSTAR": 0, "MEAN_MOTION_DOT": -8.6e-07, "MEAN_MOTION_DDOT": 0}, "tle": {"line1": "1 38250U 12018A   25352.23375975 -.00000086  00000+0  00000+0 0  9991", "line2": "2 38250  55.9152 310.9725 0024214 274.7921  84.9170  1.86230021 92574"}}, "geometry": {"type": "Point", "coordinates": [-42.05734903292795, 10.280397756492015]}}, {"type": "Feature", "properties": {"norad_id": 38251, "name": "BEIDOU-2 M4 (C12)", "group": "beidou", "lat": 44.519223282262324, "lon": -7.983201584960405, "alt_km": 21555.4616115997, "timestamp": "2025-12-19T20:43:00.350643+00:00", "meta": {"OBJECT_NAME": "BEIDOU-2 M4 (C12)", "OBJECT_ID": "2012-018B", "EPOCH": "2025-12-19T05:45:13.599936", "MEAN_MOTION": 1.86229684, "ECCENTRICITY": 0.00153935, "INCLINATION": 55.8157, "RA_OF_ASC_NODE": 310.167, "ARG_OF_PERICENTER": 278.4783, "MEAN_ANOMALY": 81.3347, "EPHEMERIS_TYPE": 0, "CLASSIFICATION_TYPE": "U", "NORAD_CAT_ID": 38251, "ELEMENT_SET_NO": 999, "REV_AT_EPOCH": 9259, "BSTAR": 0, "MEAN_MOTION_DOT": -7.8e-07, "MEAN_MOTION_DDOT": 0}, "tle": {"line1": "1 38251U 12018B   25353.23974074 -.00000078  00000+0  00000+0 0  9999", "line2": "2 38251  55.8157 310.1670 0015393 278.4783  81.3347  1.86229684 92597"}}, "geometry": {"type": "Point", "coordinates": [-7.983201584960405, 44.519223282262324]}}, {"type": "Feature", "properties": {"norad_id": 38775, "name": "BEIDOU-2 M6 (C14)", "group": "beidou", "lat": -52.26669036498404, "lon": -52.02323091214761, "alt_km": 21534.771470457814, "timestamp": "2025-12-19T20:43:00.350656+00:00", "meta": {"OBJECT_NAME": "BEIDOU-2 M6 (C14)", "OBJECT_ID": "2012-050B", "EPOCH": "2025-12-18T09:55:40.044288", "MEAN_MOTION": 1.8623091, "ECCENTRICITY": 0.00113703, "INCLINATION": 56.3831, "RA_OF_ASC_NODE": 68.8791, "ARG_OF_PERICENTER": 343.3858, "MEAN_ANOMALY": 16.6071, "EPHEMERIS_TYPE": 0, "CLASSIFICATION_TYPE": "U", "NORAD_CAT_ID": 38775, "ELEMENT_SET_NO": 999, "REV_AT_EPOCH": 8994, "BSTAR": 0, "MEAN_MOTION_DOT": -6.3e-07, "MEAN_MOTION_DDOT": 0}, "tle": {"line1": "1 38775U 12050B   25352.41365792 -.00000063  00000+0  00000+0 0  9990", "line2": "2 38775  56.3831  68.8791 0011370 343.3858  16.6071  1.86230910 89944"}}, "geometry": {"type": "Point", "coordinates": [-52.02323091214761, -52.26669036498404]}}]}